CUTE-1 (CO-55)          
1 27844U 03031E   26130.87566954  .00000207  00000+0  10844-3 0  9992
2 27844  98.6748 139.9031 0008396 297.4557  62.5768 14.24312132186361
CUBESAT XI-IV (CO-57)   
1 27848U 03031J   26130.49403878  .00000172  00000+0  94879-4 0  9991
2 27848  98.6781 139.2691 0008585 319.4878  40.5660 14.23600267186015
CUBESAT XI-V            
1 28895U 05043F   26130.69101812  .00000909  00000+0  15124-3 0  9997
2 28895  98.2944 285.5370 0013279 328.9496  31.0924 14.72531612 96234
CUTE-1.7+APD II (CO-65) 
1 32785U 08021C   26130.85602559  .00002757  00000+0  17805-3 0  9992
2 32785  97.8261 111.5143 0009907 146.2097 213.9765 15.09094611979565
CANX-2                  
1 32790U 08021H   26130.86795022  .00002339  00000+0  16765-3 0  9997
2 32790  97.8629 109.9345 0010924 160.2565 199.9086 15.05351191979194
SEEDS II (CO-66)        
1 32791U 08021J   26130.77634397  .00011493  00000+0  38060-3 0  9998
2 32791  97.7531 126.9295 0005076  88.9113 271.2709 15.31469835981560
SWISSCUBE               
1 35932U 09051B   26130.67492998  .00000673  00000+0  14276-3 0  9991
2 35932  98.4058  37.9080 0006374 341.4162  18.6805 14.62407558883678
BEESAT-1                
1 35933U 09051C   26130.73345766  .00000548  00000+0  12003-3 0  9996
2 35933  98.3987  37.6809 0005211 359.1194   0.9996 14.61657847883712
ITUPSAT1                
1 35935U 09051E   26130.69163037  .00000508  00000+0  11516-3 0  9996
2 35935  98.4072  36.8697 0007623   5.6146 354.5137 14.60382828883263
TISAT 1                 
1 36799U 10035E   26130.79614139  .00013199  00000+0  45306-3 0  9998
2 36799  98.0690  74.0785 0003718  57.1556 303.0040 15.30286661861987
AEROCUBE 4.5A           
1 38767U 12048K   26130.42092675  .00111174  00000+0  65856-3 0  9990
2 38767  64.6295 162.8772 0019574 217.1445 142.8355 15.77238274366670
STRAND-1                
1 39090U 13009E   26130.73845193  .00000192  00000+0  78880-4 0  9992
2 39090  98.3917 311.8964 0008342 351.4564   8.6480 14.37140751691686
BRITE-AUSTRIA           
1 39091U 13009F   26130.73525956  .00000115  00000+0  53720-4 0  9996
2 39091  98.3988 311.0998 0010080 359.1913   0.9256 14.36526856691677
NEE-01 PEGASO           
1 39151U 13018B   26130.34628774  .00002213  00000+0  21600-3 0  9994
2 39151  98.1173 273.2628 0011214 290.5828  69.4187 14.93474540705056
POPACS 2                
1 39269U 13055E   26130.85756080  .00010020  00000+0  17197-3 0  9994
2 39269  80.9930 186.8977 0419479 313.8733  42.8522 14.90369150657658
POPACS 3                
1 39270U 13055F   26130.79436909  .00011585  00000+0  27727-3 0  9991
2 39270  81.0002 269.7007 0554988 183.7065 175.9951 14.55199926633116
ZACUBE-1 (TSHEPISOSAT)  
1 39417U 13066B   26130.87674647  .00003148  00000+0  24767-3 0  9995
2 39417  97.8121  93.0117 0042174  18.7408 341.5357 15.00896866675130
WNISAT-1                
1 39423U 13066H   26130.67256220  .00000332  00000+0  69355-4 0  9998
2 39423  97.7157 282.5018 0162870 350.5799   9.2356 14.58016128661269
TRITON-1                
1 39427U 13066M   26130.81394812  .00001338  00000+0  16587-3 0  9993
2 39427  97.8260  41.4724 0090340 357.2182   2.8516 14.81538661668550
GOMX-1                  
1 39430U 13066Q   26130.80023139  .00001432  00000+0  22158-3 0  9993
2 39430  97.6513 333.6201 0128272 196.9835 162.7059 14.69312729664429
CUBEBUG-2 (LO-74)       
1 39440U 13066AA  26130.81481329  .00002532  00000+0  23835-3 0  9999
2 39440  97.8887  79.6502 0058746 149.7828 210.6801 14.93483704671417
NEE-02 KRYSAOR          
1 39441U 13066AB  26130.78378896  .00001045  00000+0  12007-3 0  9997
2 39441  97.8879  70.2742 0065864 191.1009 168.8757 14.86478863670643
FUNCUBE-1 (AO-73)       
1 39444U 13066AE  26130.86206292  .00005825  00000+0  36734-3 0  9992
2 39444  97.8257 101.5480 0035662 333.5687  26.3721 15.09001553674030
UWE-3                   
1 39446U 13066AG  26130.37977211  .00002188  00000+0  19192-3 0  9994
2 39446  97.8682  86.2160 0051084  85.6808 275.0248 14.96709697671925
BRITE-CA1 (TORONTO)     
1 40020U 14033L   26130.80371763  .00000505  00000+0  83417-4 0  9990
2 40020  97.9685 260.4336 0079437  37.4782 323.1928 14.72625216636714
DUCHIFAT-1              
1 40021U 14033M   26130.64829100  .00051606  00000+0  68483-3 0  9999
2 40021  98.0511 184.7536 0005629 193.5005 166.6099 15.58072937649892
NANOSATC-BR1            
1 40024U 14033Q   26130.61991963  .00010547  00000+0  36301-3 0  9999
2 40024  98.0759 159.7125 0002098 339.3122  20.8032 15.30267290648235
QB50P1                  
1 40025U 14033R   26130.57580742  .00005825  00000+0  29269-3 0  9992
2 40025  98.0986 139.1019 0008613   6.9443 353.1906 15.17673850647323
QB50P2                  
1 40032U 14033Y   26130.71445414  .00004673  00000+0  25650-3 0  9992
2 40032  98.0760 125.2792 0005972 312.5610  47.5116 15.14678317646991
PERSEUS-M2              
1 40037U 14033AD  26130.86078338  .00001183  00000+0  11252-3 0  9996
2 40037  97.9936  80.6506 0013091  65.9387 294.3201 14.95391276645201
